IRIDIUM 126             
1 42809U 17039G   25060.39716387  .00000205  00000+0  66256-4 0  9995
2 42809  86.4027 191.2029 0002285  98.2328 261.9127 14.34217914402184
IRIDIUM 124             
1 42810U 17039H   25060.56272235  .00000870  00000+0  25256-3 0  9997
2 42810  86.4504 127.9834 0002195  88.9985 271.1467 14.43281127406946
IRIDIUM 128             
1 42811U 17039J   25060.52743711  .00000361  00000+0  12174-3 0  9996
2 42811  86.3966 222.6235 0002143  83.9462 276.1978 14.34219155402236
IRIDIUM 121             
1 42812U 17039K   25060.41619130  .00000110  00000+0  32136-4 0  9995
2 42812  86.4032 191.2198 0001923  94.2049 265.9366 14.34216768402067
IRIDIUM 133             
1 42955U 17061A   25060.48938102  .00000574  00000+0  19803-3 0  9997
2 42955  86.3970 222.7454 0002113  88.5351 271.6087 14.34219864387026
IRIDIUM 100             
1 42956U 17061B   25060.48303773  .00000730  00000+0  25343-3 0  9998
2 42956  86.3966 222.6779 0002135  88.6956 271.4485 14.34220365387025
IRIDIUM 122             
1 42957U 17061C   25060.52109442  .00000632  00000+0  21874-3 0  9997
2 42957  86.3966 222.6608 0002369  91.8849 268.2618 14.34220025387039
IRIDIUM 129             
1 42958U 17061D   25060.54646333  .00000085  00000+0  23290-4 0  9992
2 42958  86.3967 222.7121 0002046 103.8258 256.3166 14.34218713387051
